CCSDS_OMM_VERS = 2.0
CREATION_DATE  = 
ORIGINATOR     = 

OBJECT_NAME    = SL-16 R/B
OBJECT_ID      = 1993-016B
CENTER_NAME    = EARTH
REF_FRAME      = TEME
TIME_SYSTEM    = UTC
MEAN_ELEMENT_THEORY = SGP/SGP4

EPOCH          = 2025-12-25T11:56:57.086016
MEAN_MOTION    = 14.15292962
ECCENTRICITY   = .0008044
INCLINATION    = 71.0084
RA_OF_ASC_NODE = 11.0073
ARG_OF_PERICENTER = 72.2662
MEAN_ANOMALY   = 287.9338

EPHEMERIS_TYPE = 0
CLASSIFICATION_TYPE = U
NORAD_CAT_ID   = 22566
ELEMENT_SET_NO = 999
REV_AT_EPOCH   = 69167
BSTAR          = .16877E-3
MEAN_MOTION_DOT = .281E-5
MEAN_MOTION_DDOT = 0

CCSDS_OMM_VERS = 2.0
CREATION_DATE  = 
ORIGINATOR     = 

OBJECT_NAME    = COSMOS 2242
OBJECT_ID      = 1993-024A
CENTER_NAME    = EARTH
REF_FRAME      = TEME
TIME_SYSTEM    = UTC
MEAN_ELEMENT_THEORY = SGP/SGP4

EPOCH          = 2025-12-25T22:40:52.206816
MEAN_MOTION    = 14.96159546
ECCENTRICITY   = .00159845
INCLINATION    = 82.5196
RA_OF_ASC_NODE = 337.2219
ARG_OF_PERICENTER = 187.1214
MEAN_ANOMALY   = 172.9783

EPHEMERIS_TYPE = 0
CLASSIFICATION_TYPE = U
NORAD_CAT_ID   = 22626
ELEMENT_SET_NO = 999
REV_AT_EPOCH   = 76936
BSTAR          = .21416943E-3
MEAN_MOTION_DOT = .2442E-4
MEAN_MOTION_DDOT = 0

CCSDS_OMM_VERS = 2.0
CREATION_DATE  = 
ORIGINATOR     = 

OBJECT_NAME    = SL-16 R/B
OBJECT_ID      = 1993-059B
CENTER_NAME    = EARTH
REF_FRAME      = TEME
TIME_SYSTEM    = UTC
MEAN_ELEMENT_THEORY = SGP/SGP4

EPOCH          = 2025-12-25T22:20:34.867104
MEAN_MOTION    = 14.17216397
ECCENTRICITY   = .00186069
INCLINATION    = 70.9885
RA_OF_ASC_NODE = 166.6689
ARG_OF_PERICENTER = 317.0496
MEAN_ANOMALY   = 42.9173

EPHEMERIS_TYPE = 0
CLASSIFICATION_TYPE = U
NORAD_CAT_ID   = 22803
ELEMENT_SET_NO = 999
REV_AT_EPOCH   = 66908
BSTAR          = .17417511E-3
MEAN_MOTION_DOT = .304E-5
MEAN_MOTION_DDOT = 0

CCSDS_OMM_VERS = 2.0
CREATION_DATE  = 
ORIGINATOR     = 

OBJECT_NAME    = ARIANE 40 R/B
OBJECT_ID      = 1993-061H
CENTER_NAME    = EARTH
REF_FRAME      = TEME
TIME_SYSTEM    = UTC
MEAN_ELEMENT_THEORY = SGP/SGP4

EPOCH          = 2025-12-25T19:36:07.490304
MEAN_MOTION    = 14.32810024
ECCENTRICITY   = .00115446
INCLINATION    = 98.5059
RA_OF_ASC_NODE = 65.1078
ARG_OF_PERICENTER = 139.1054
MEAN_ANOMALY   = 221.0998

EPHEMERIS_TYPE = 0
CLASSIFICATION_TYPE = U
NORAD_CAT_ID   = 22830
ELEMENT_SET_NO = 999
REV_AT_EPOCH   = 68352
BSTAR          = .11788309E-3
MEAN_MOTION_DOT = .278E-5
MEAN_MOTION_DDOT = 0

CCSDS_OMM_VERS = 2.0
CREATION_DATE  = 
ORIGINATOR     = 

OBJECT_NAME    = COSMOS 2278
OBJECT_ID      = 1994-023A
CENTER_NAME    = EARTH
REF_FRAME      = TEME
TIME_SYSTEM    = UTC
MEAN_ELEMENT_THEORY = SGP/SGP4

EPOCH          = 2025-12-25T14:52:52.802112
MEAN_MOTION    = 14.14348579
ECCENTRICITY   = .0007785
INCLINATION    = 71.0534
RA_OF_ASC_NODE = 330.0621
ARG_OF_PERICENTER = 156.4486
MEAN_ANOMALY   = 203.6995

EPHEMERIS_TYPE = 0
CLASSIFICATION_TYPE = U
NORAD_CAT_ID   = 23087
ELEMENT_SET_NO = 999
REV_AT_EPOCH   = 63433
BSTAR          = .66151E-4
MEAN_MOTION_DOT = .79E-6
MEAN_MOTION_DDOT = 0

CCSDS_OMM_VERS = 2.0
CREATION_DATE  = 
ORIGINATOR     = 

OBJECT_NAME    = SL-16 R/B
OBJECT_ID      = 1994-023B
CENTER_NAME    = EARTH
REF_FRAME      = TEME
TIME_SYSTEM    = UTC
MEAN_ELEMENT_THEORY = SGP/SGP4

EPOCH          = 2025-12-25T21:53:41.952768
MEAN_MOTION    = 14.14999358
ECCENTRICITY   = .00021016
INCLINATION    = 70.9976
RA_OF_ASC_NODE = 225.8239
ARG_OF_PERICENTER = 2.8487
MEAN_ANOMALY   = 357.2647

EPHEMERIS_TYPE = 0
CLASSIFICATION_TYPE = U
NORAD_CAT_ID   = 23088
ELEMENT_SET_NO = 999
REV_AT_EPOCH   = 63565
BSTAR          = -.94451454E-4
MEAN_MOTION_DOT = -.231E-5
MEAN_MOTION_DDOT = 0

CCSDS_OMM_VERS = 2.0
CREATION_DATE  = 
ORIGINATOR     = 

OBJECT_NAME    = SL-16 R/B
OBJECT_ID      = 1994-074B
CENTER_NAME    = EARTH
REF_FRAME      = TEME
TIME_SYSTEM    = UTC
MEAN_ELEMENT_THEORY = SGP/SGP4

EPOCH          = 2025-12-25T16:07:48.093888
MEAN_MOTION    = 14.79303842
ECCENTRICITY   = .0008044
INCLINATION    = 97.7189
RA_OF_ASC_NODE = 28.4619
ARG_OF_PERICENTER = 100.5123
MEAN_ANOMALY   = 14.6614

EPHEMERIS_TYPE = 0
CLASSIFICATION_TYPE = U
NORAD_CAT_ID   = 23343
ELEMENT_SET_NO = 999
REV_AT_EPOCH   = 67630
BSTAR          = .72915E-4
MEAN_MOTION_DOT = .493E-5
MEAN_MOTION_DDOT = 0

CCSDS_OMM_VERS = 2.0
CREATION_DATE  = 
ORIGINATOR     = 

OBJECT_NAME    = SL-16 R/B
OBJECT_ID      = 1994-077B
CENTER_NAME    = EARTH
REF_FRAME      = TEME
TIME_SYSTEM    = UTC
MEAN_ELEMENT_THEORY = SGP/SGP4

EPOCH          = 2025-12-25T20:26:54.546144
MEAN_MOTION    = 14.15552036
ECCENTRICITY   = .00050464
INCLINATION    = 70.9822
RA_OF_ASC_NODE = 147.8288
ARG_OF_PERICENTER = 274.6288
MEAN_ANOMALY   = 85.4258

EPHEMERIS_TYPE = 0
CLASSIFICATION_TYPE = U
NORAD_CAT_ID   = 23405
ELEMENT_SET_NO = 999
REV_AT_EPOCH   = 60578
BSTAR          = -.78941191E-4
MEAN_MOTION_DOT = -.202E-5
MEAN_MOTION_DDOT = 0

CCSDS_OMM_VERS = 2.0
CREATION_DATE  = 
ORIGINATOR     = 

OBJECT_NAME    = ARIANE 40+ R/B
OBJECT_ID      = 1995-021B
CENTER_NAME    = EARTH
REF_FRAME      = TEME
TIME_SYSTEM    = UTC
MEAN_ELEMENT_THEORY = SGP/SGP4

EPOCH          = 2025-12-25T19:29:20.325120
MEAN_MOTION    = 14.39705213
ECCENTRICITY   = .00067857
INCLINATION    = 98.4635
RA_OF_ASC_NODE = 67.2424
ARG_OF_PERICENTER = 13.3378
MEAN_ANOMALY   = 97.7031

EPHEMERIS_TYPE = 0
CLASSIFICATION_TYPE = U
NORAD_CAT_ID   = 23561
ELEMENT_SET_NO = 999
REV_AT_EPOCH   = 60861
BSTAR          = .11888596E-3
MEAN_MOTION_DOT = .329E-5
MEAN_MOTION_DDOT = 0

CCSDS_OMM_VERS = 2.0
CREATION_DATE  = 
ORIGINATOR     = 

OBJECT_NAME    = SL-16 R/B
OBJECT_ID      = 1995-058B
CENTER_NAME    = EARTH
REF_FRAME      = TEME
TIME_SYSTEM    = UTC
MEAN_ELEMENT_THEORY = SGP/SGP4

EPOCH          = 2025-12-25T22:13:29.544096
MEAN_MOTION    = 14.15481350
ECCENTRICITY   = .00146014
INCLINATION    = 71.0217
RA_OF_ASC_NODE = 335.1192
ARG_OF_PERICENTER = 237.8948
MEAN_ANOMALY   = 122.0758

EPHEMERIS_TYPE = 0
CLASSIFICATION_TYPE = U
NORAD_CAT_ID   = 23705
ELEMENT_SET_NO = 999
REV_AT_EPOCH   = 55741
BSTAR          = -.44482952E-4
MEAN_MOTION_DOT = -.135E-5
MEAN_MOTION_DDOT = 0

CCSDS_OMM_VERS = 2.0
CREATION_DATE  = 
ORIGINATOR     = 

OBJECT_NAME    = SL-16 R/B
OBJECT_ID      = 1996-051B
CENTER_NAME    = EARTH
REF_FRAME      = TEME
TIME_SYSTEM    = UTC
MEAN_ELEMENT_THEORY = SGP/SGP4

EPOCH          = 2025-12-25T22:40:32.705472
MEAN_MOTION    = 14.12397652
ECCENTRICITY   = .00194858
INCLINATION    = 70.7595
RA_OF_ASC_NODE = 331.3320
ARG_OF_PERICENTER = 245.1501
MEAN_ANOMALY   = 114.7593

EPHEMERIS_TYPE = 0
CLASSIFICATION_TYPE = U
NORAD_CAT_ID   = 24298
ELEMENT_SET_NO = 999
REV_AT_EPOCH   = 51123
BSTAR          = .20630509E-4
MEAN_MOTION_DOT = -.11E-6
MEAN_MOTION_DDOT = 0

CCSDS_OMM_VERS = 2.0
CREATION_DATE  = 
ORIGINATOR     = 

OBJECT_NAME    = ORBVIEW 2 (SEASTAR)
OBJECT_ID      = 1997-037A
CENTER_NAME    = EARTH
REF_FRAME      = TEME
TIME_SYSTEM    = UTC
MEAN_ELEMENT_THEORY = SGP/SGP4

EPOCH          = 2025-12-25T21:07:59.267712
MEAN_MOTION    = 14.35426107
ECCENTRICITY   = .00012174
INCLINATION    = 98.8463
RA_OF_ASC_NODE = 157.2863
ARG_OF_PERICENTER = 282.8017
MEAN_ANOMALY   = 77.3031

EPHEMERIS_TYPE = 0
CLASSIFICATION_TYPE = U
NORAD_CAT_ID   = 24883
ELEMENT_SET_NO = 999
REV_AT_EPOCH   = 49788
BSTAR          = .12026199E-3
MEAN_MOTION_DOT = .299E-5
MEAN_MOTION_DDOT = 0

